IRIDIUM 106             
1 41917U 17003A   25092.57706159  .00000008  00000+0 -41435-5 0  9991
2 41917  86.3909 272.6191 0001566  93.7783 266.3592 14.34217483430054
IRIDIUM 103             
1 41918U 17003B   25092.56437730 -.00000062  00000+0 -29193-4 0  9994
2 41918  86.3910 272.5254 0002007  72.1797 287.9618 14.34217153430077
IRIDIUM 109             
1 41919U 17003C   25092.57071909  .00000041  00000+0  77268-5 0  9990
2 41919  86.3910 272.5749 0002297  87.2538 272.8920 14.34217621430044
IRIDIUM 102             
1 41920U 17003D   25092.53900753  .00000023  00000+0  11187-5 0  9994
2 41920  86.3908 272.5211 0002029  95.4799 264.6628 14.34217474430129
IRIDIUM 105             
1 41921U 17003E   25092.43995685  .00000676  00000+0  23448-3 0  9997
2 41921  86.3957 240.9820 0002048  88.3866 271.7564 14.34218212431968
IRIDIUM 104             
1 41922U 17003F   25092.55169321  .00000043  00000+0  83620-5 0  9999
2 41922  86.3910 272.5517 0002421  82.2155 277.9316 14.34218023430110
IRIDIUM 114             
1 41923U 17003G   25092.55803474  .00000015  00000+0 -15500-5 0  9996
2 41923  86.3910 272.5340 0001903  83.7985 276.3428 14.34217404430092
IRIDIUM 108             
1 41924U 17003H   25092.44678768  .00000300  00000+0  10013-3 0  9999
2 41924  86.3951 240.8853 0001850  98.6768 261.4637 14.34218874431933
